1 45532U 20025B   23140.70310150  .00024036  00000-0  16256-2 0  9992
2 45532  53.0557  23.4718 0000850  91.4655 268.6432 15.06432742170175
1 45532U 20025B   23140.83579072  .00025209  00000-0  17033-2 0  9993
2 45532  53.0551  22.8752 0000958  89.0998 271.0101 15.06441898170771
1 45532U 20025B   23140.96847975  .00026093  00000-0  17618-2 0  9998
2 45532  53.0552  22.2795 0000926  89.3043 270.8052 15.06449877170791
1 45532U 20025B   23141.69831188  .00015624  00000-0  10660-2 0  9996
2 45532  53.0539  19.0049 0000229   5.2592 354.8399 15.06381621170322
1 45532U 20025B   23141.76465888  .00023826  00000-0  16135-2 0  9990
2 45532  53.0547  18.7097 0000038 109.5194 250.5799 15.06387819170910
1 45532U 20025B   23141.96370789  .00011400  00000-0  78391-3 0  9995
2 45532  53.0550  17.8117 0000920 115.2643 244.8441 15.06354999170362
1 45532U 20025B   23142.36179775  .00018904  00000-0  12856-2 0  9991
2 45532  53.0544  16.0249 0001022 131.4866 228.6211 15.06370582171006
1 45532U 20025B   23142.36179775  .00018904  00000-0  12856-2 0  9991
2 45532  53.0544  16.0249 0001022 131.4866 228.6211 15.06370582170421
1 45532U 20025B   23142.75988677  .00021232  00000-0  14408-2 0  9996
2 45532  53.0545  14.2371 0001009 133.3798 226.7275 15.06379726171067
1 45532U 20025B   23143.88779031  .00013163  00000-0  90102-3 0  9993
2 45532  53.0543   9.1740 0000908 132.4098 227.6968 15.06396549171238
1 45532U 20025B   23143.88779031  .00013163  00000-0  90102-3 0  9993
2 45532  53.0543   9.1740 0000908 132.4098 227.6968 15.06396549170653
1 45532U 20025B   23144.61759670  .00015169  00000-0  10344-2 0  9999
2 45532  53.0544   5.8969 0000914 129.0532 231.0539 15.06423681171340
1 45532U 20025B   23144.61759670  .00015169  00000-0  10344-2 0  9999
2 45532  53.0544   5.8969 0000914 129.0532 231.0539 15.06423681170765
1 45532U 20025B   23145.61278795  .00006079  00000-0  42641-3 0  9990
2 45532  53.0551   1.4297 0000843 115.1061 245.0015 15.06420848171490
1 45532U 20025B   23145.74548209  .00002016  00000-0  15416-3 0  9991
2 45532  53.0554   0.8327 0000828 107.0476 253.0604 15.06412468170933
1 45532U 20025B   23145.81182878  .00000174  00000-0  30573-4 0  9990
2 45532  53.0554   0.5353 0000806 110.6471 249.4605 15.06408964171522
1 45532U 20025B   23146.87336355  .00006198  00000-0  43428-3 0  9992
2 45532  53.0557 355.7687 0000943 120.1340 239.9742 15.06425954171684
1 45532U 20025B   23146.87336355  .00006198  00000-0  43428-3 0  9992
2 45532  53.0557 355.7687 0000943 120.1340 239.9742 15.06425954171101
1 45532U 20025B   23147.27144589  .00003318  00000-0  24145-3 0  9999
2 45532  53.0560 353.9831 0001017  92.8068 267.3037 15.06412495171165
1 45532U 20025B   23147.80222511 -.00004464  00000-0 -28102-3 0  9992
2 45532  53.0549 351.6016 0000684  85.8903 274.2164 15.06393386171829
1 45532U 20025B   23147.80222511 -.00004464  00000-0 -28102-3 0  9992
2 45532  53.0549 351.6016 0000684  85.8903 274.2164 15.06393386171245
1 45532U 20025B   23148.79743173  .00016801  00000-0  11438-2 0  9992
2 45532  53.0547 347.1339 0000688  77.6910 282.4156 15.06410058171396
1 45532U 20025B   23148.93012399  .00017005  00000-0  11573-2 0  9994
2 45532  53.0547 346.5382 0000683  78.3666 281.7400 15.06414608171993
1 45532U 20025B   23149.52725054  .00005179  00000-0  36629-3 0  9998
2 45532  53.0544 343.8577 0000691  88.5061 271.6007 15.06398532172086
1 45532U 20025B   23149.72629219  .00004225  00000-0  30238-3 0  9997
2 45532  53.0544 342.9640 0000710 106.9611 253.1456 15.06395072171533
1 45532U 20025B   23149.85898706  .00006188  00000-0  43399-3 0  9992
2 45532  53.0545 342.3682 0000650  93.0059 267.1005 15.06396035172131
1 45532U 20025B   23150.78783967  .00012574  00000-0  86115-3 0  9997
2 45532  53.0547 338.1981 0000617  90.3030 269.8030 15.06414536172279
1 45532U 20025B   23150.78783967  .00012574  00000-0  86115-3 0  9997
2 45532  53.0547 338.1981 0000617  90.3030 269.8030 15.06414536171694
1 45532U 20025B   23151.25226453  .00007474  00000-0  51991-3 0  9999
2 45532  53.0548 336.1137 0000573  74.2069 285.8983 15.06413833172347
1 45532U 20025B   23151.25226453  .00007474  00000-0  51991-3 0  9999
2 45532  53.0548 336.1137 0000573  74.2069 285.8983 15.06413833171762
1 45532U 20025B   23151.78304231  .00003521  00000-0  25510-3 0  9995
2 45532  53.0545 333.7308 0000828  86.0322 274.0761 15.06404481172425
1 45532U 20025B   23151.78304231  .00003521  00000-0  25510-3 0  9995
2 45532  53.0545 333.7308 0000828  86.0322 274.0761 15.06404481171840
1 45532U 20025B   23152.51285172  .00017798  00000-0  12099-2 0  9997
2 45532  53.0538 330.4550 0000924  84.4407 275.6687 15.06424423172537
1 45532U 20025B   23152.51285172  .00017798  00000-0  12099-2 0  9997
2 45532  53.0538 330.4550 0000924  84.4407 275.6687 15.06424423171952
1 45532U 20025B   23153.50805128 -.00008950  00000-0 -58289-3 0  9990
2 45532  53.0550 325.9875 0000926 106.5051 253.6039 15.06389930172106
1 45532U 20025B   23153.77344225  .00000659  00000-0  63156-4 0  9991
2 45532  53.0548 324.7958 0000801 109.2975 250.8101 15.06389280172724
1 45532U 20025B   23154.17153020  .00017237  00000-0  11736-2 0  9992
2 45532  53.0544 323.0088 0000748 114.5285 245.5782 15.06388051172203
1 45532U 20025B   23154.50326524  .00016396  00000-0  11171-2 0  9998
2 45532  53.0546 321.5195 0000760 114.7573 245.3495 15.06398260172834
1 45532U 20025B   23154.83499755  .00016138  00000-0  10995-2 0  9998
2 45532  53.0543 320.0305 0000736 115.2252 244.8813 15.06409302172884
1 45532U 20025B   23155.43212362  .00009133  00000-0  63114-3 0  9991
2 45532  53.0543 317.3534 0001270  88.4288 271.6847 15.06403772172971
1 45532U 20025B   23155.43212362  .00009133  00000-0  63114-3 0  9991
2 45532  53.0543 317.3534 0001270  88.4288 271.6847 15.06403772172397
1 45532U 20025B   23155.76386075  .00006481  00000-0  45365-3 0  9991
2 45532  53.0542 315.8604 0000665  90.1133 269.9933 15.06393997172442
1 45532U 20025B   23155.83020781  .00008871  00000-0  61376-3 0  9993
2 45532  53.0543 315.5626 0000630  89.7550 270.3511 15.06396225173034
1 45532U 20025B   23156.42732804  .00013437  00000-0  91899-3 0  9992
2 45532  53.0548 312.8808 0000497  93.2232 266.8814 15.06409385173127
1 45532U 20025B   23156.69271047  .00017344  00000-0  11796-2 0  9996
2 45532  53.0544 311.6898 0000520  85.8178 274.2870 15.06423843173166
1 45532U 20025B   23157.42252765  .00009605  00000-0  66257-3 0  9998
2 45532  53.0544 308.4144 0000745  73.2278 286.8792 15.06412598173274
1 45532U 20025B   23157.42252765  .00009605  00000-0  66257-3 0  9998
2 45532  53.0544 308.4144 0000745  73.2278 286.8792 15.06412598172699
1 45532U 20025B   23157.62157124  .00016022  00000-0  10924-2 0  9993
2 45532  53.0544 307.5213 0000902  77.7349 282.3740 15.06388419172721
1 45532U 20025B   23157.68791842  .00021572  00000-0  14631-2 0  9995
2 45532  53.0544 307.2232 0000878  78.9865 281.1223 15.06389843173318
1 45532U 20025B   23158.55042048  .00022614  00000-0  15310-2 0  9992
2 45532  53.0545 303.3511 0000913  74.1957 285.9133 15.06428290173442
1 45532U 20025B   23158.68311103  .00023529  00000-0  15917-2 0  9996
2 45532  53.0545 302.7556 0000918  71.7396 288.3693 15.06434964173464
1 45532U 20025B   23158.68311103  .00023529  00000-0  15917-2 0  9996
2 45532  53.0545 302.7556 0000918  71.7396 288.3693 15.06434964172889
1 45532U 20025B   23159.41293078  .00019474  00000-0  13224-2 0  9991
2 45532  53.0543 299.4793 0000505  96.4737 263.6310 15.06405898172995
1 45532U 20025B   23159.54562611  .00013939  00000-0  95316-3 0  9990
2 45532  53.0543 298.8838 0000692  95.3981 264.7087 15.06386266173591
1 45532U 20025B   23159.54562611  .00013939  00000-0  95316-3 0  9990
2 45532  53.0543 298.8838 0000692  95.3981 264.7087 15.06386266173018
1 45532U 20025B   23160.47447834  .00017867  00000-0  12147-2 0  9997
2 45532  53.0544 294.7144 0000677  96.3669 263.7398 15.06418927173734
1 45532U 20025B   23160.67351484  .00020179  00000-0  13686-2 0  9993
2 45532  53.0542 293.8211 0000658  95.6583 264.4481 15.06429460173761
1 45532U 20025B   23160.67351484  .00020179  00000-0  13686-2 0  9993
2 45532  53.0542 293.8211 0000658  95.6583 264.4481 15.06429460173187
1 45532U 20025B   23161.13793732  .00012358  00000-0  84644-3 0  9994
2 45532  53.0530 291.7332 0000621  27.8831 332.2191 15.06426915173250
1 45532U 20025B   23161.46968181 -.00005535  00000-0 -35312-3 0  9991
2 45532  53.0536 290.2470 0000696  66.7123 293.3940 15.06387154173880
1 45532U 20025B   23161.46968181 -.00005535  00000-0 -35312-3 0  9991
2 45532  53.0536 290.2470 0000696  66.7123 293.3940 15.06387154173307
1 45532U 20025B   23161.60238001  .00015674  00000-0  10695-2 0  9997
2 45532  53.0535 289.6518 0000741  50.7677 309.3378 15.06376391173909
1 45532U 20025B   23162.33219986  .00024147  00000-0  16342-2 0  9999
2 45532  53.0533 286.3749 0000768  51.5186 308.5872 15.06405207173437
1 45532U 20025B   23162.59758493  .00024796  00000-0  16769-2 0  9991
2 45532  53.0532 285.1837 0000823  47.5762 312.5297 15.06416955174055
1 45532U 20025B   23162.73027670  .00025058  00000-0  16941-2 0  9997
2 45532  53.0533 284.5882 0000831  45.0085 315.0972 15.06422808174073
1 45532U 20025B   23163.06201397  .00013157  00000-0  90033-3 0  9996
2 45532  53.0519 283.1004 0000871  43.1943 316.9114 15.06406515173540
1 45532U 20025B   23163.32740335  .00015735  00000-0  10728-2 0  9991
2 45532  53.0534 281.9070 0001229  71.6928 288.4194 15.06403695173584
1 45532U 20025B   23163.59279461  .00013986  00000-0  95640-3 0  9990
2 45532  53.0536 280.7160 0000593  11.1419 348.9583 15.06382121174204
1 45532U 20025B   23163.59279461  .00013986  00000-0  95640-3 0  9990
2 45532  53.0536 280.7160 0000593  11.1419 348.9583 15.06382121173629
1 45532U 20025B   23164.45530641  .00015574  00000-0  10620-2 0  9995
2 45532  53.0542 276.8444 0001004  44.5750 315.5319 15.06404866174330
1 45532U 20025B   23165.31781509  .00005359  00000-0  37836-3 0  9991
2 45532  53.0547 272.9714 0000611  60.1855 299.9195 15.06402677174464
